[{"OBJECT_NAME":"FLYING LAPTOP","OBJECT_ID":"2017-042G","EPOCH":"2026-03-04T20:14:16.645344","MEAN_MOTION":15.00479867,"ECCENTRICITY":0.0018665,"INCLINATION":97.4254,"RA_OF_ASC_NODE":223.7338,"ARG_OF_PERICENTER":111.1672,"MEAN_ANOMALY":249.1549,"EPHEMERIS_TYPE":0,"CLASSIFICATION_TYPE":"U","NORAD_CAT_ID":42831,"ELEMENT_SET_NO":999,"REV_AT_EPOCH":47080,"BSTAR":0.0004123,"MEAN_MOTION_DOT":5.155e-5,"MEAN_MOTION_DDOT":0},{"OBJECT_NAME":"HAWK-A","OBJECT_ID":"2018-099H","EPOCH":"2026-03-04T13:15:05.359104","MEAN_MOTION":15.23132102,"ECCENTRICITY":0.0034421,"INCLINATION":97.4062,"RA_OF_ASC_NODE":117.1868,"ARG_OF_PERICENTER":294.3937,"MEAN_ANOMALY":65.3709,"EPHEMERIS_TYPE":0,"CLASSIFICATION_TYPE":"U","NORAD_CAT_ID":43765,"ELEMENT_SET_NO":999,"REV_AT_EPOCH":39716,"BSTAR":0.00045898,"MEAN_MOTION_DOT":0.00010948,"MEAN_MOTION_DDOT":0},{"OBJECT_NAME":"HAWK-B","OBJECT_ID":"2018-099AN","EPOCH":"2026-03-04T12:26:28.305024","MEAN_MOTION":15.21441463,"ECCENTRICITY":0.0031649,"INCLINATION":97.411,"RA_OF_ASC_NODE":116.7781,"ARG_OF_PERICENTER":312.4801,"MEAN_ANOMALY":47.376,"EPHEMERIS_TYPE":0,"CLASSIFICATION_TYPE":"U","NORAD_CAT_ID":43794,"ELEMENT_SET_NO":999,"REV_AT_EPOCH":39711,"BSTAR":0.00041754,"MEAN_MOTION_DOT":9.439e-5,"MEAN_MOTION_DDOT":0},{"OBJECT_NAME":"HAWK-C","OBJECT_ID":"2018-099AT","EPOCH":"2026-03-04T02:24:15.563232","MEAN_MOTION":15.26279019,"ECCENTRICITY":0.00406292,"INCLINATION":97.404,"RA_OF_ASC_NODE":117.1589,"ARG_OF_PERICENTER":297.9203,"MEAN_ANOMALY":61.7924,"EPHEMERIS_TYPE":0,"CLASSIFICATION_TYPE":"U","NORAD_CAT_ID":43799,"ELEMENT_SET_NO":999,"REV_AT_EPOCH":39787,"BSTAR":0.00050198781,"MEAN_MOTION_DOT":0.00013265,"MEAN_MOTION_DDOT":0},{"OBJECT_NAME":"SALSAT","OBJECT_ID":"2020-068K","EPOCH":"2026-03-04T12:00:02.662848","MEAN_MOTION":15.28060764,"ECCENTRICITY":0.00086882,"INCLINATION":97.8848,"RA_OF_ASC_NODE":60.3287,"ARG_OF_PERICENTER":318.7431,"MEAN_ANOMALY":41.3149,"EPHEMERIS_TYPE":0,"CLASSIFICATION_TYPE":"U","NORAD_CAT_ID":46495,"ELEMENT_SET_NO":999,"REV_AT_EPOCH":29936,"BSTAR":0.00053709432,"MEAN_MOTION_DOT":0.00014646,"MEAN_MOTION_DDOT":0},{"OBJECT_NAME":"HAWK-2C","OBJECT_ID":"2021-006CT","EPOCH":"2026-03-04T03:05:04.223904","MEAN_MOTION":15.33187058,"ECCENTRICITY":0.00063429,"INCLINATION":97.2423,"RA_OF_ASC_NODE":109.5609,"ARG_OF_PERICENTER":204.81,"MEAN_ANOMALY":155.2838,"EPHEMERIS_TYPE":0,"CLASSIFICATION_TYPE":"U","NORAD_CAT_ID":47502,"ELEMENT_SET_NO":999,"REV_AT_EPOCH":28339,"BSTAR":0.00031955324,"MEAN_MOTION_DOT":0.00010178,"MEAN_MOTION_DDOT":0},{"OBJECT_NAME":"HAWK-2A","OBJECT_ID":"2021-006CW","EPOCH":"2026-03-04T03:10:13.204992","MEAN_MOTION":15.3320712,"ECCENTRICITY":0.00058873,"INCLINATION":97.2467,"RA_OF_ASC_NODE":110.1797,"ARG_OF_PERICENTER":208.0476,"MEAN_ANOMALY":152.045,"EPHEMERIS_TYPE":0,"CLASSIFICATION_TYPE":"U","NORAD_CAT_ID":47505,"ELEMENT_SET_NO":999,"REV_AT_EPOCH":28339,"BSTAR":0.00040418941,"MEAN_MOTION_DOT":0.00012905,"MEAN_MOTION_DDOT":0},{"OBJECT_NAME":"HAWK-2B","OBJECT_ID":"2021-006CZ","EPOCH":"2026-03-04T01:31:35.060736","MEAN_MOTION":15.3317804,"ECCENTRICITY":0.00065,"INCLINATION":97.234,"RA_OF_ASC_NODE":108.6207,"ARG_OF_PERICENTER":206.5248,"MEAN_ANOMALY":153.5663,"EPHEMERIS_TYPE":0,"CLASSIFICATION_TYPE":"U","NORAD_CAT_ID":47508,"ELEMENT_SET_NO":999,"REV_AT_EPOCH":28338,"BSTAR":0.00032703289,"MEAN_MOTION_DOT":0.00010416,"MEAN_MOTION_DDOT":0},{"OBJECT_NAME":"HAWK-3B","OBJECT_ID":"2021-059BE","EPOCH":"2026-03-04T11:41:01.517568","MEAN_MOTION":15.6109798,"ECCENTRICITY":0.00053778,"INCLINATION":97.671,"RA_OF_ASC_NODE":250.9409,"ARG_OF_PERICENTER":358.4277,"MEAN_ANOMALY":1.6962,"EPHEMERIS_TYPE":0,"CLASSIFICATION_TYPE":"U","NORAD_CAT_ID":48931,"ELEMENT_SET_NO":999,"REV_AT_EPOCH":26147,"BSTAR":0.00063557116,"MEAN_MOTION_DOT":0.00053714,"MEAN_MOTION_DDOT":0},{"OBJECT_NAME":"HAWK-3C","OBJECT_ID":"2021-059BX","EPOCH":"2026-03-04T19:22:12.203616","MEAN_MOTION":15.61126572,"ECCENTRICITY":0.0005868,"INCLINATION":97.6858,"RA_OF_ASC_NODE":256.7769,"ARG_OF_PERICENTER":357.3565,"MEAN_ANOMALY":2.766,"EPHEMERIS_TYPE":0,"CLASSIFICATION_TYPE":"U","NORAD_CAT_ID":48948,"ELEMENT_SET_NO":999,"REV_AT_EPOCH":26152,"BSTAR":0.00059128,"MEAN_MOTION_DOT":0.00050001,"MEAN_MOTION_DDOT":0},{"OBJECT_NAME":"HAWK-3A","OBJECT_ID":"2021-059CG","EPOCH":"2026-03-04T11:40:26.424480","MEAN_MOTION":15.6110223,"ECCENTRICITY":0.0005459,"INCLINATION":97.6795,"RA_OF_ASC_NODE":253.7225,"ARG_OF_PERICENTER":358.2876,"MEAN_ANOMALY":1.8361,"EPHEMERIS_TYPE":0,"CLASSIFICATION_TYPE":"U","NORAD_CAT_ID":48957,"ELEMENT_SET_NO":999,"REV_AT_EPOCH":26147,"BSTAR":0.00064411086,"MEAN_MOTION_DOT":0.00054452,"MEAN_MOTION_DDOT":0},{"OBJECT_NAME":"HAWK-5C","OBJECT_ID":"2022-057Y","EPOCH":"2026-03-04T19:25:50.588256","MEAN_MOTION":15.47273476,"ECCENTRICITY":0.0005638,"INCLINATION":97.6448,"RA_OF_ASC_NODE":217.1649,"ARG_OF_PERICENTER":92.2645,"MEAN_ANOMALY":267.925,"EPHEMERIS_TYPE":0,"CLASSIFICATION_TYPE":"U","NORAD_CAT_ID":52754,"ELEMENT_SET_NO":999,"REV_AT_EPOCH":21018,"BSTAR":0.00051525,"MEAN_MOTION_DOT":0.00026228,"MEAN_MOTION_DDOT":0},{"OBJECT_NAME":"HAWK-5B","OBJECT_ID":"2022-057AA","EPOCH":"2026-03-04T19:25:39.311328","MEAN_MOTION":15.47274562,"ECCENTRICITY":0.0005615,"INCLINATION":97.645,"RA_OF_ASC_NODE":215.505,"ARG_OF_PERICENTER":86.9714,"MEAN_ANOMALY":273.2177,"EPHEMERIS_TYPE":0,"CLASSIFICATION_TYPE":"U","NORAD_CAT_ID":52756,"ELEMENT_SET_NO":999,"REV_AT_EPOCH":21018,"BSTAR":0.00051868,"MEAN_MOTION_DOT":0.00026405,"MEAN_MOTION_DDOT":0},{"OBJECT_NAME":"HAWK-5A","OBJECT_ID":"2022-057AB","EPOCH":"2026-03-04T19:25:15.210912","MEAN_MOTION":15.47274246,"ECCENTRICITY":0.0006017,"INCLINATION":97.645,"RA_OF_ASC_NODE":216.3388,"ARG_OF_PERICENTER":89.099,"MEAN_ANOMALY":271.0948,"EPHEMERIS_TYPE":0,"CLASSIFICATION_TYPE":"U","NORAD_CAT_ID":52757,"ELEMENT_SET_NO":999,"REV_AT_EPOCH":21018,"BSTAR":0.00053117,"MEAN_MOTION_DOT":0.00027048,"MEAN_MOTION_DDOT":0},{"OBJECT_NAME":"HAWK-6B","OBJECT_ID":"2023-011A","EPOCH":"2026-03-04T13:18:35.401824","MEAN_MOTION":15.21823496,"ECCENTRICITY":0.0002827,"INCLINATION":40.5118,"RA_OF_ASC_NODE":241.8769,"ARG_OF_PERICENTER":350.2508,"MEAN_ANOMALY":9.8246,"EPHEMERIS_TYPE":0,"CLASSIFICATION_TYPE":"U","NORAD_CAT_ID":55324,"ELEMENT_SET_NO":999,"REV_AT_EPOCH":17189,"BSTAR":0.00038986,"MEAN_MOTION_DOT":8.858e-5,"MEAN_MOTION_DDOT":0},{"OBJECT_NAME":"HAWK-6C","OBJECT_ID":"2023-011C","EPOCH":"2026-03-04T13:17:43.539360","MEAN_MOTION":15.2181737,"ECCENTRICITY":0.0003247,"INCLINATION":40.4822,"RA_OF_ASC_NODE":238.7594,"ARG_OF_PERICENTER":336.7138,"MEAN_ANOMALY":23.3523,"EPHEMERIS_TYPE":0,"CLASSIFICATION_TYPE":"U","NORAD_CAT_ID":55326,"ELEMENT_SET_NO":999,"REV_AT_EPOCH":17190,"BSTAR":0.00039915,"MEAN_MOTION_DOT":9.074e-5,"MEAN_MOTION_DDOT":0},{"OBJECT_NAME":"HAWK-6A","OBJECT_ID":"2023-011D","EPOCH":"2026-03-04T18:01:14.589984","MEAN_MOTION":15.21824761,"ECCENTRICITY":0.0002881,"INCLINATION":40.4973,"RA_OF_ASC_NODE":239.2145,"ARG_OF_PERICENTER":335.7521,"MEAN_ANOMALY":24.3152,"EPHEMERIS_TYPE":0,"CLASSIFICATION_TYPE":"U","NORAD_CAT_ID":55327,"ELEMENT_SET_NO":999,"REV_AT_EPOCH":17193,"BSTAR":0.00040313,"MEAN_MOTION_DOT":9.168e-5,"MEAN_MOTION_DDOT":0}]
